OTTER                   
1 62623U 25009Q   26068.72300813  .00012198  00000+0  45151-3 0  9990
2 62623  97.4065 151.3812 0003573 310.7710  49.3219 15.27809545 63722
STARLINK-36114          
1 66870U 25281Y   26068.16680333  .00028498  00000+0  10411-2 0  9996
2 66870  43.0035 346.5907 0001738 277.5261  82.5393 15.27579451 16099
